ORBCOMM FM24            
1 25478U 98053D   25159.48394949  .00000891  00000+0  33803-3 0  9990
2 25478  45.0091 310.3624 0003287 184.1056 175.9766 14.38085970396195
ORBCOMM FM25            
1 25479U 98053E   25159.52461040  .00000826  00000+0  31675-3 0  9996
2 25479  45.0082 308.4390 0005604 196.8003 163.2661 14.38060087396490
ORBCOMM FM26            
1 25480U 98053F   25159.53043055  .00000643  00000+0  26158-3 0  9998
2 25480  45.0078 304.8072 0007254 214.0865 145.9518 14.37124470396401
ORBCOMM FM27            
1 25481U 98053G   25159.44302812  .00000899  00000+0  34037-3 0  9996
2 25481  45.0065 309.0323 0001860 187.6120 172.4700 14.38089102396412
ORBCOMM FM28            
1 25482U 98053H   25159.55125804  .00000621  00000+0  24870-3 0  9990
2 25482  45.0049 246.0322 0006461 247.1161 112.9005 14.38280340397115
ORBCOMM FM30            
1 25980U 99065A   25159.24337172  .00000678  00000+0  27240-3 0  9992
2 25980  45.0302 132.0476 0008443 318.5104  41.5103 14.37286016333162
ORBCOMM FM31            
1 25981U 99065B   25159.63334125  .00000651  00000+0  26386-3 0  9992
2 25981  45.0218 123.6928 0005499 336.1558  23.9034 14.37224662333744
ORBCOMM FM32            
1 25982U 99065C   25159.67413628  .00000664  00000+0  27342-3 0  9990
2 25982  45.0143 140.0211 0007741 334.3164  25.7298 14.36269602333503
